NORAD_CAT_ID,OBJECT_NAME,OBJECT_TYPE,EPOCH,MEAN_MOTION,ECCENTRICITY,INCLINATION,RA_OF_ASC_NODE,ARG_OF_PERICENTER,MEAN_ANOMALY,BSTAR,MEAN_MOTION_DOT,MEAN_MOTION_DDOT,TLE_LINE0,TLE_LINE1,TLE_LINE2,SEMIMAJOR_AXIS,PERIOD,APOGEE,PERIGEE,DECAYED
49176.0,STARLINK-3069,PAYLOAD,2022-03-30 22:00:00,15.6678495,0.0003552,70.0001,290.8282,267.5105,128.0848,-0.0074191,-0.00720455,0.0,0 STARLINK-3069,1 49176U 21082AY  22089.91667824 -.00720455  00000-0 -74191-2 0  9993,2 49176  70.0001 290.8282 0003552 267.5105 128.0848 15.66784950  3712,6746.246999999999,91.908,370.508,365.716,0.0
49176.0,STARLINK-3069,PAYLOAD,2022-03-31 06:00:00,15.66273051,0.0003533,69.9998,289.8954,262.4758,212.3798,-0.0075595,-0.00719148,0.0,0 STARLINK-3069,1 49176U 21082AY  22090.25001157 -.00719148  00000-0 -75595-2 0  9999,2 49176  69.9998 289.8954 0003533 262.4758 212.3798 15.66273051 31194,6747.717,91.938,371.966,367.198,0.0
49176.0,STARLINK-3069,PAYLOAD,2022-03-31 14:00:01,15.6576101,0.0003354,70.0002,288.9634,268.475,285.0274,-0.0076803,-0.00715947,0.0,0 STARLINK-3069,1 49176U 21082AY  22090.58334491 -.00715947  00000-0 -76803-2 0  9991,2 49176  70.0002 288.9634 0003354 268.4750 285.0274 15.65761010  3682,6749.188,91.968,373.317,368.789,0.0
49176.0,STARLINK-3069,PAYLOAD,2022-03-31 22:00:00,15.6518325,0.0003628999999999,70.0002,288.0311,259.6458,11.9238,-0.0067811999999999,-0.00624592,0.0,0 STARLINK-3069,1 49176U 21082AY  22090.91667824 -.00624592  00000-0 -67812-2 0  9992,2 49176  70.0002 288.0311 0003629 259.6458  11.9238 15.65183250  3665,6750.849,92.002,375.164,370.264,0.0
49176.0,STARLINK-3069,PAYLOAD,2022-04-01 08:00:01,15.64562362,0.0003437,70.0001,286.8678,272.1076,186.1333,-0.0072257999999999,-0.00647434,0.0,0 STARLINK-3069,1 49176U 21082AY  22091.33334491 -.00647434  00000-0 -72258-2 0  9990,2 49176  70.0001 286.8678 0003437 272.1076 186.1333 15.64562362 31362,6752.635,92.039,376.821,372.179,0.0
49176.0,STARLINK-3069,PAYLOAD,2022-04-01 14:00:01,15.64228082,0.0003549,70.0002,286.1714,270.5688,155.1979,-0.0081768999999999,-0.00716945,0.0,0 STARLINK-3069,1 49176U 21082AY  22091.58334491 -.00716945  00000-0 -81769-2 0  9998,2 49176  70.0002 286.1714 0003549 270.5688 155.1979 15.64228082  3697,6753.597,92.058,377.859,373.065,0.0
49176.0,STARLINK-3069,PAYLOAD,2022-04-01 22:00:00,15.63716017,0.0003406,70.0,285.2422,265.8713,236.0914,-0.0083191,-0.00714908,0.0,0 STARLINK-3069,1 49176U 21082AY  22091.91667824 -.00714908  00000-0 -83191-2 0  9992,2 49176  70.0000 285.2422 0003406 265.8713 236.0914 15.63716017 31451,6755.071,92.088,379.237,374.635,0.0
49176.0,STARLINK-3069,PAYLOAD,2022-04-02 22:00:01,15.62184739,0.0003587,70.0001,282.4587,262.7314,104.2063,-0.0088715,-0.00717702,0.0,0 STARLINK-3069,1 49176U 21082AY  22092.91668981 -.00717702  00000-0 -88715-2 0  9990,2 49176  70.0001 282.4587 0003587 262.7314 104.2063 15.62184739 31614,6759.485,92.179,383.774,378.925,0.0
49176.0,STARLINK-3069,PAYLOAD,2022-04-03 22:00:00,15.60649213,0.0003326,70.0,279.6816,269.9456,316.3233,-0.0093516,-0.00713143,0.0,0 STARLINK-3069,1 49176U 21082AY  22093.91667824 -.00713143  00000-0 -93516-2 0  9996,2 49176  70.0000 279.6816 0003326 269.9456 316.3233 15.60649213 31765,6763.918000000002,92.269,388.032,383.533,0.0
49176.0,STARLINK-3069,PAYLOAD,2022-04-04 14:00:01,15.5963033,0.0003528,70.0003,277.8339,270.7286,98.739,-0.0097973,-0.00718101,0.0,0 STARLINK-3069,1 49176U 21082AY  22094.58334491 -.00718101  00000-0 -97973-2 0  9991,2 49176  70.0003 277.8339 0003528 270.7286  98.7390 15.59630330  3697,6766.863,92.33,391.115,386.341,0.0
49176.0,STARLINK-3069,PAYLOAD,2022-04-04 22:00:00,15.59115376,0.0003509,70.0001,276.9109,270.8393,169.3104,-0.0098958,-0.00711768,0.0,0 STARLINK-3069,1 49176U 21082AY  22094.91667824 -.00711768  00000-0 -98958-2 0  9993,2 49176  70.0001 276.9109 0003509 270.8393 169.3104 15.59115376  3695,6768.353,92.36,392.593,387.843,0.0
49176.0,STARLINK-3069,PAYLOAD,2022-04-05 00:00:00,15.58987909,0.0003378,69.9998,276.6803,270.1248,277.599,-0.0099485,-0.00712038,0.0,0 STARLINK-3069,1 49176U 21082AY  22095.00001157 -.00712038  00000-0 -99485-2 0  9992,2 49176  69.9998 276.6803 0003378 270.1248 277.5990 15.58987909 31932,6768.722,92.368,392.87300000000016,388.301,0.0
49176.0,STARLINK-3069,PAYLOAD,2022-04-05 14:00:01,15.58012095,0.0003301,69.9998,275.0665,264.9271,314.8532,-0.0086349999999999,-0.00603635,0.0,0 STARLINK-3069,1 49176U 21082AY  22095.58335648 -.00603635  00000-0 -86350-2 0  9999,2 49176  69.9998 275.0665 0003301 264.9271 314.8532 15.58012095  3665,6771.5480000000025,92.425,395.648,391.17800000000005,0.0
49176.0,STARLINK-3069,PAYLOAD,2022-04-05 22:00:00,15.57482188,0.0003284,69.9999,274.146,264.9845,23.5819,-0.0083875,-0.00576678,0.0,0 STARLINK-3069,1 49176U 21082AY  22095.91667824 -.00576678  00000-0 -83875-2 0  9995,2 49176  69.9999 274.1460 0003284 264.9845  23.5819 15.57482188 32078,6773.084,92.457,397.173,392.725,0.0
49176.0,STARLINK-3069,PAYLOAD,2022-04-06 06:00:02,15.57072881,0.0003553,70.0,273.2264,262.1993,94.6095,-0.010734,-0.00714529,0.0,0 STARLINK-3069,1 49176U 21082AY  22096.25002315 -.00714529  00000-0 -10734-1 0  9993,2 49176  70.0000 273.2264 0003553 262.1993  94.6095 15.57072881 32136,6774.271,92.481,398.543,393.729,0.0
49176.0,STARLINK-3069,PAYLOAD,2022-04-06 14:00:01,15.56563808,0.0003538,70.0003,272.3073,273.8029,150.5569,-0.010981,-0.0071697,0.0,0 STARLINK-3069,1 49176U 21082AY  22096.58334491 -.00716970  00000-0 -10981-1 0  9998,2 49176  70.0003 272.3073 0003538 273.8029 150.5569 15.56563808  3701,6775.748000000001,92.511,400.01,395.215,0.0
49176.0,STARLINK-3069,PAYLOAD,2022-04-06 22:00:00,15.55986393,0.0003402,69.9998,271.3882,270.2758,221.1238,-0.0097573,-0.00630275,0.0,0 STARLINK-3069,1 49176U 21082AY  22096.91667824 -.00630275  00000-0 -97573-2 0  9990,2 49176  69.9998 271.3882 0003402 270.2758 221.1238 15.55986393  3668,6777.424,92.546,401.595,396.983,0.0
49176.0,STARLINK-3069,PAYLOAD,2022-04-07 06:00:00,15.55487518,0.0003338,70.0001,270.4702,272.943,284.8381,-0.010133,-0.00641639,0.0,0 STARLINK-3069,1 49176U 21082AY  22097.25001157 -.00641639  00000-0 -10133-1 0  9991,2 49176  70.0001 270.4702 0003338 272.9430 284.8381 15.55487518 32281,6778.873000000001,92.575,403.001,398.475,0.0
49176.0,STARLINK-3069,PAYLOAD,2022-04-07 14:00:01,15.55030157,0.0003375,70.0003,269.5533,273.0682,350.465,-0.011589,-0.00714971,0.0,0 STARLINK-3069,1 49176U 21082AY  22097.58334491 -.00714971  00000-0 -11589-1 0  9993,2 49176  70.0003 269.5533 0003375 273.0682 350.4650 15.55030157  3714,6780.2019999999975,92.603,404.355,399.779,0.0
49176.0,STARLINK-3069,PAYLOAD,2022-04-07 20:00:01,15.54645597,0.000329,70.0001,268.8658,267.6502,314.8152,-0.011722,-0.00713153,0.0,0 STARLINK-3069,1 49176U 21082AY  22097.83334491 -.00713153  00000-0 -11722-1 0  9991,2 49176  70.0001 268.8658 0003290 267.6502 314.8152 15.54645597 32372,6781.32,92.626,405.416,400.954,0.0
49176.0,STARLINK-3069,PAYLOAD,2022-04-07 22:00:00,15.54517405,0.0003501,70.0001,268.6368,266.5766,62.1228,-0.011755,-0.00711962,0.0,0 STARLINK-3069,1 49176U 21082AY  22097.91667824 -.00711962  00000-0 -11755-1 0  9991,2 49176  70.0001 268.6368 0003501 266.5766  62.1228 15.54517405  3688,6781.693,92.633,405.932,401.184,0.0
49176.0,STARLINK-3069,PAYLOAD,2022-04-08 14:00:03,15.53497545,0.0003522,70.0002,266.8059,277.3908,179.9302,-0.012282,-0.00716259,0.0,0 STARLINK-3069,1 49176U 21082AY  22098.58336806 -.00716259  00000-0 -12282-1 0  9998,2 49176  70.0002 266.8059 0003522 277.3908 179.9302 15.53497545  3701,6784.661,92.694,408.915,404.136,0.0
49176.0,STARLINK-3069,PAYLOAD,2022-04-08 22:00:00,15.5298081,0.0003396,69.9998,265.8914,280.0487,240.4721,-0.01233,-0.0070651,0.0,0 STARLINK-3069,1 49176U 21082AY  22098.91667824 -.00706510  00000-0 -12330-1 0  9995,2 49176  69.9998 265.8914 0003396 280.0487 240.4721 15.52980810 32547,6786.166,92.725,410.335,405.726,0.0
49176.0,STARLINK-3069,PAYLOAD,2022-04-09 14:00:01,15.53243639,0.0002864,69.9997,264.0636,269.8238,17.1653,-0.002163,-0.00134469,0.0,0 STARLINK-3069,1 49176U 21082AY  22099.58334491 -.00134469  00000-0 -21630-2 0  9992,2 49176  69.9997 264.0636 0002864 269.8238  17.1653 15.53243639  3707,6785.4,92.709,409.208,405.322,0.0
49176.0,STARLINK-3069,PAYLOAD,2022-04-09 16:00:00,15.53217862,0.0002924,69.9996,263.8353,272.3922,120.4344,-0.001648,-0.00102804,0.0,0 STARLINK-3069,1 49176U 21082AY  22099.66667824 -.00102804  00000-0 -16480-2 0  9995,2 49176  69.9996 263.8353 0002924 272.3922 120.4344 15.53217862 32666,6785.475,92.711,409.324,405.356,0.0
49176.0,STARLINK-3069,PAYLOAD,2022-04-09 22:00:00,15.53141581,0.0003131,69.9991,263.1495,277.0535,73.2281,0.00072508,0.00045711,0.0,0 STARLINK-3069,1 49176U 21082AY  22099.91667824  .00045711  00000-0  72508-3 0  9998,2 49176  69.9991 263.1495 0003131 277.0535  73.2281 15.53141581  3706,6785.696999999999,92.715,409.687,405.43800000000016,0.0
49176.0,STARLINK-3069,PAYLOAD,2022-04-10 06:00:02,15.53137268,0.0003253,69.999,262.2353,269.5271,144.0688,-9.1944e-05,-5.948e-05,0.0,0 STARLINK-3069,1 49176U 21082AY  22100.25002315 -.00005948  00000-0 -91944-4 0  9992,2 49176  69.9990 262.2353 0003253 269.5271 144.0688 15.53137268 32758,6785.71,92.716,409.782,405.367,0.0
49176.0,STARLINK-3069,PAYLOAD,2022-04-10 14:00:01,15.53173222,0.0003457,69.9992,261.3213,271.0132,205.7024,-0.001573,-0.00098042,0.0,0 STARLINK-3069,1 49176U 21082AY  22100.58334491 -.00098042  00000-0 -15730-2 0  9995,2 49176  69.9992 261.3213 0003457 271.0132 205.7024 15.53173222  3695,6785.605,92.713,409.816,405.124,0.0
49176.0,STARLINK-3069,PAYLOAD,2022-04-10 22:00:00,15.53093545,0.0003612,69.9989,260.4073,276.3617,263.5817,0.00058102,0.00036492,0.0,0 STARLINK-3069,1 49176U 21082AY  22100.91667824  .00036492  00000-0  58102-3 0  9991,2 49176  69.9989 260.4073 0003612 276.3617 263.5817 15.53093545  3707,6785.837,92.718,410.153,405.251,0.0
